COMMENT,ORIGINATOR,NORAD_CAT_ID,OBJECT_NAME,OBJECT_TYPE,CLASSIFICATION_TYPE,INTLDES,EPOCH,EPOCH_MICROSECONDS,MEAN_MOTION,ECCENTRICITY,INCLINATION,RA_OF_ASC_NODE,ARG_OF_PERICENTER,MEAN_ANOMALY,EPHEMERIS_TYPE,ELEMENT_SET_NO,REV_AT_EPOCH,BSTAR,MEAN_MOTION_DOT,MEAN_MOTION_DDOT,FILE,TLE_LINE0,TLE_LINE1,TLE_LINE2,OBJECT_ID,OBJECT_NUMBER,SEMIMAJOR_AXIS,PERIOD,APOGEE,PERIGEE,DECAYED
"GENERATED VIA SPACETRACK.ORG API","18 SPCS","55099","SPACEBEE-156","PAYLOAD","U","23001CU","2024-04-17 21:48:20","917152","15.40327774","0.0008273","97.4264","174.2209","7.4491","352.6876","0","999","7179","0.0022483","0.00091653","0","4286350","0 SPACEBEE-156","1 55099U 23001CU  24108.90857543  .00091653  00000-0  22483-2 0  9995","2 55099  97.4264 174.2209 0008273   7.4491 352.6876 15.40327774 71793","2023-001CU","55099","6823.278","93.487","450.788","439.498","0"
"GENERATED VIA SPACETRACK.ORG API","18 SPCS","55099","SPACEBEE-156","PAYLOAD","U","23001CU","2024-04-18 04:02:31","912224","15.40375703","0.0008225","97.4262","174.4847","6.6599","353.4755","0","999","7183","0.0020079","0.00081868","0","4286908","0 SPACEBEE-156","1 55099U 23001CU  24109.16842491  .00081868  00000-0  20079-2 0  9996","2 55099  97.4262 174.4847 0008225   6.6599 353.4755 15.40375703 71833","2023-001CU","55099","6823.137","93.484","450.614","439.390","0"
"GENERATED VIA SPACETRACK.ORG API","18 SPCS","55099","SPACEBEE-156","PAYLOAD","U","23001CU","2024-04-18 04:02:31","912224","15.40375703","0.0008225","97.4262","174.4847","6.6599","353.4755","0","999","7183","0.0020079","0.00081868","0","4287604","0 SPACEBEE-156","1 55099U 23001CU  24109.16842491  .00081868  00000-0  20079-2 0  9996","2 55099  97.4262 174.4847 0008225   6.6599 353.4755 15.40375703 71833","2023-001CU","55099","6823.137","93.484","450.614","439.390","0"
"GENERATED VIA SPACETRACK.ORG API","18 SPCS","55099","SPACEBEE-156","PAYLOAD","U","23001CU","2024-04-18 19:37:56","634240","15.40480503","0.0008236","97.4258","175.1444","3.2637","356.8661","0","999","7193","0.0020319","0.00083148","0","4288150","0 SPACEBEE-156","1 55099U 23001CU  24109.81801660  .00083148  00000-0  20319-2 0  9991","2 55099  97.4258 175.1444 0008236   3.2637 356.8661 15.40480503 71936","2023-001CU","55099","6822.827","93.477","450.311","439.073","0"
"GENERATED VIA SPACETRACK.ORG API","18 SPCS","55099","SPACEBEE-156","PAYLOAD","U","23001CU","2024-04-19 09:39:45","426240","15.4058065","0.0008157","97.426","175.7387","0.7285","359.3972","0","999","7202","0.0021641","0.0008892","0","4289374","0 SPACEBEE-156","1 55099U 23001CU  24110.40260910  .00088920  00000-0  21641-2 0  9997","2 55099  97.4260 175.7387 0008157   0.7285 359.3972 15.40580650 72022","2023-001CU","55099","6822.531","93.471","449.962","438.831","0"
"GENERATED VIA SPACETRACK.ORG API","18 SPCS","55099","SPACEBEE-156","PAYLOAD","U","23001CU","2024-04-19 14:20:20","903424","15.40626685","0.0008168","97.4262","175.9371","359.5861","0.5377","0","999","7205","0.0026092","0.00107648","0","4289403","0 SPACEBEE-156","1 55099U 23001CU  24110.59746416  .00107648  00000-0  26092-2 0  9991","2 55099  97.4262 175.9371 0008168 359.5861   0.5377 15.40626685 72052","2023-001CU","55099","6822.396","93.468","449.833","438.688","0"
"GENERATED VIA SPACETRACK.ORG API","18 SPCS","55099","SPACEBEE-156","PAYLOAD","U","23001CU","2024-04-19 17:27:24","221952","15.40660249","0.0008142","97.4263","176.0689","358.8974","1.2253","0","999","7207","0.0026435","0.00109206","0","4290008","0 SPACEBEE-156","1 55099U 23001CU  24110.72736368  .00109206  00000-0  26435-2 0  9994","2 55099  97.4263 176.0689 0008142 358.8974   1.2253 15.40660249 72073","2023-001CU","55099","6822.296","93.466","449.716","438.607","0"
"GENERATED VIA SPACETRACK.ORG API","18 SPCS","55099","SPACEBEE-156","PAYLOAD","U","23001CU","2024-04-19 17:27:24","221952","15.40660249","0.0008142","97.4263","176.0689","358.8974","1.2253","0","999","7207","0.0026435","0.00109206","0","4290026","0 SPACEBEE-156","1 55099U 23001CU  24110.72736368  .00109206  00000-0  26435-2 0  9994","2 55099  97.4263 176.0689 0008142 358.8974   1.2253 15.40660249 72073","2023-001CU","55099","6822.296","93.466","449.716","438.607","0"
"GENERATED VIA SPACETRACK.ORG API","18 SPCS","55099","SPACEBEE-156","PAYLOAD","U","23001CU","2024-04-20 04:22:03","780480","15.40779811","0.0008029","97.4263","176.5304","357.3485","2.7717","0","999","7214","0.0020765","0.00085842","0","4290758","0 SPACEBEE-156","1 55099U 23001CU  24111.18198820  .00085842  00000-0  20765-2 0  9999","2 55099  97.4263 176.5304 0008029 357.3485   2.7717 15.40779811 72142","2023-001CU","55099","6821.944","93.459","449.286","438.331","0"
"GENERATED VIA SPACETRACK.ORG API","18 SPCS","55099","SPACEBEE-156","PAYLOAD","U","23001CU","2024-04-20 04:22:03","780480","15.40779811","0.0008029","97.4263","176.5304","357.3485","2.7717","0","999","7214","0.0020765","0.00085842","0","4291469","0 SPACEBEE-156","1 55099U 23001CU  24111.18198820  .00085842  00000-0  20765-2 0  9999","2 55099  97.4263 176.5304 0008029 357.3485   2.7717 15.40779811 72142","2023-001CU","55099","6821.944","93.459","449.286","438.331","0"
"GENERATED VIA SPACETRACK.ORG API","18 SPCS","55099","SPACEBEE-156","PAYLOAD","U","23001CU","2024-04-20 16:50:11","537088","15.40885145","0.0008145","97.426","177.0588","354.7153","5.4006","0","999","7222","0.0018687","0.00077431","0","4292106","0 SPACEBEE-156","1 55099U 23001CU  24111.70152242  .00077431  00000-0  18687-2 0  9990","2 55099  97.4260 177.0588 0008145 354.7153   5.4006 15.40885145 72229","2023-001CU","55099","6821.633","93.453","449.054","437.941","0"
"GENERATED VIA SPACETRACK.ORG API","18 SPCS","55099","SPACEBEE-156","PAYLOAD","U","23001CU","2024-04-20 16:50:11","537088","15.40885145","0.0008145","97.426","177.0588","354.7153","5.4006","0","999","7222","0.0018687","0.00077431","0","4292116","0 SPACEBEE-156","1 55099U 23001CU  24111.70152242  .00077431  00000-0  18687-2 0  9990","2 55099  97.4260 177.0588 0008145 354.7153   5.4006 15.40885145 72229","2023-001CU","55099","6821.633","93.453","449.054","437.941","0"
"GENERATED VIA SPACETRACK.ORG API","18 SPCS","55099","SPACEBEE-156","PAYLOAD","U","23001CU","2024-04-21 03:44:45","728448","15.40983366","0.0007986","97.4258","177.5202","352.6926","7.4202","0","999","7229","0.0019166","0.00079696","0","4292725","0 SPACEBEE-156","1 55099U 23001CU  24112.15608482  .00079696  00000-0  19166-2 0  9990","2 55099  97.4258 177.5202 0007986 352.6926   7.4202 15.40983366 72292","2023-001CU","55099","6821.343","93.447","448.655","437.760","0"
"GENERATED VIA SPACETRACK.ORG API","18 SPCS","55099","SPACEBEE-156","PAYLOAD","U","23001CU","2024-04-21 11:32:17","329632","15.41053093","0.0008023","97.4258","177.8507","351.1497","8.9607","0","999","7234","0.0025876","0.00108273","0","4292766","0 SPACEBEE-156","1 55099U 23001CU  24112.48075613  .00108273  00000-0  25876-2 0  9999","2 55099  97.4258 177.8507 0008023 351.1497   8.9607 15.41053093 72340","2023-001CU","55099","6821.137","93.443","448.475","437.529","0"
"GENERATED VIA SPACETRACK.ORG API","18 SPCS","55099","SPACEBEE-156","PAYLOAD","U","23001CU","2024-04-21 17:46:17","745888","15.41108453","0.0008062","97.4258","178.1144","349.7967","10.3114","0","999","7238","0.0025282","0.00105949","0","4293451","0 SPACEBEE-156","1 55099U 23001CU  24112.74048317  .00105949  00000-0  25282-2 0  9997","2 55099  97.4258 178.1144 0008062 349.7967  10.3114 15.41108453 72384","2023-001CU","55099","6820.974","93.439","448.338","437.340","0"
"GENERATED VIA SPACETRACK.ORG API","18 SPCS","55099","SPACEBEE-156","PAYLOAD","U","23001CU","2024-04-22 03:07:16","658688","15.4120002","0.0007867","97.4258","178.5102","348.0811","12.0248","0","999","7244","0.0025028","0.00105186","0","4294713","0 SPACEBEE-156","1 55099U 23001CU  24113.13005392  .00105186  00000-0  25028-2 0  9998","2 55099  97.4258 178.5102 0007867 348.0811  12.0248 15.41200020 72441","2023-001CU","55099","6820.703","93.434","447.934","437.203","0"
"GENERATED VIA SPACETRACK.ORG API","18 SPCS","55099","SPACEBEE-156","PAYLOAD","U","23001CU","2024-04-22 17:08:41","897184","15.41312752","0.0008001","97.4255","179.1045","345.8969","14.2053","0","999","7253","0.0023549","0.00099262","0","4295328","0 SPACEBEE-156","1 55099U 23001CU  24113.71437381  .00099262  00000-0  23549-2 0  9992","2 55099  97.4255 179.1045 0008001 345.8969  14.2053 15.41312752 72535","2023-001CU","55099","6820.371","93.427","447.693","436.779","0"
"GENERATED VIA SPACETRACK.ORG API","18 SPCS","55099","SPACEBEE-156","PAYLOAD","U","23001CU","2024-04-22 17:08:41","897184","15.41312752","0.0008001","97.4255","179.1045","345.8969","14.2053","0","999","7253","0.0023549","0.00099262","0","4295412","0 SPACEBEE-156","1 55099U 23001CU  24113.71437381  .00099262  00000-0  23549-2 0  9992","2 55099  97.4255 179.1045 0008001 345.8969  14.2053 15.41312752 72535","2023-001CU","55099","6820.371","93.427","447.693","436.779","0"
"GENERATED VIA SPACETRACK.ORG API","18 SPCS","55099","SPACEBEE-156","PAYLOAD","U","23001CU","2024-04-23 04:03:05","427648","15.41405331","0.0007983","97.4253","179.5663","343.3982","16.7002","0","999","7260","0.0021245","0.00089707","0","4296658","0 SPACEBEE-156","1 55099U 23001CU  24114.16881282  .00089707  00000-0  21245-2 0  9999","2 55099  97.4253 179.5663 0007983 343.3982  16.7002 15.41405331 72604","2023-001CU","55099","6820.098","93.421","447.407","436.518","0"
"GENERATED VIA SPACETRACK.ORG API","18 SPCS","55099","SPACEBEE-156","PAYLOAD","U","23001CU","2024-04-23 16:30:55","321920","15.41501148","0.0008071","97.4249","180.0946","340.8688","19.2254","0","999","7268","0.0019909","0.0008427","0","4296933","0 SPACEBEE-156","1 55099U 23001CU  24114.68814030  .00084270  00000-0  19909-2 0  9997","2 55099  97.4249 180.0946 0008071 340.8688  19.2254 15.41501148 72682","2023-001CU","55099","6819.815","93.415","447.184","436.176","0"
